[{"OBJECT_NAME":"SMOS","OBJECT_ID":"2009-059A","EPOCH":"2026-03-07T02:23:39.186240","MEAN_MOTION":14.39757922,"ECCENTRICITY":0.0001009,"INCLINATION":98.4426,"RA_OF_ASC_NODE":254.9149,"ARG_OF_PERICENTER":81.9112,"MEAN_ANOMALY":278.2191,"EPHEMERIS_TYPE":0,"CLASSIFICATION_TYPE":"U","NORAD_CAT_ID":36036,"ELEMENT_SET_NO":999,"REV_AT_EPOCH":85876,"BSTAR":0.00013406,"MEAN_MOTION_DOT":3.77e-6,"MEAN_MOTION_DDOT":0},{"OBJECT_NAME":"YAOGAN-7","OBJECT_ID":"2009-069A","EPOCH":"2026-03-07T03:06:23.111424","MEAN_MOTION":14.77887058,"ECCENTRICITY":0.0024974,"INCLINATION":98.0215,"RA_OF_ASC_NODE":312.5539,"ARG_OF_PERICENTER":11.5918,"MEAN_ANOMALY":348.5862,"EPHEMERIS_TYPE":0,"CLASSIFICATION_TYPE":"U","NORAD_CAT_ID":36110,"ELEMENT_SET_NO":999,"REV_AT_EPOCH":87455,"BSTAR":0.00013185,"MEAN_MOTION_DOT":9.0e-6,"MEAN_MOTION_DDOT":0},{"OBJECT_NAME":"TANDEM-X","OBJECT_ID":"2010-030A","EPOCH":"2026-03-06T13:39:15.972768","MEAN_MOTION":15.19144773,"ECCENTRICITY":0.00019107,"INCLINATION":97.4467,"RA_OF_ASC_NODE":74.738,"ARG_OF_PERICENTER":96.7733,"MEAN_ANOMALY":263.3719,"EPHEMERIS_TYPE":0,"CLASSIFICATION_TYPE":"U","NORAD_CAT_ID":36605,"ELEMENT_SET_NO":999,"REV_AT_EPOCH":87106,"BSTAR":9.1828258e-5,"MEAN_MOTION_DOT":1.861e-5,"MEAN_MOTION_DDOT":0},{"OBJECT_NAME":"CARTOSAT-2B","OBJECT_ID":"2010-035A","EPOCH":"2026-03-07T03:46:39.047232","MEAN_MOTION":14.78767112,"ECCENTRICITY":0.00123,"INCLINATION":97.8749,"RA_OF_ASC_NODE":117.4912,"ARG_OF_PERICENTER":157.0575,"MEAN_ANOMALY":203.1188,"EPHEMERIS_TYPE":0,"CLASSIFICATION_TYPE":"U","NORAD_CAT_ID":36795,"ELEMENT_SET_NO":999,"REV_AT_EPOCH":84477,"BSTAR":0.00034606,"MEAN_MOTION_DOT":2.495e-5,"MEAN_MOTION_DDOT":0},{"OBJECT_NAME":"YAOGAN-10","OBJECT_ID":"2010-038A","EPOCH":"2026-03-07T05:26:45.062016","MEAN_MOTION":14.85000671,"ECCENTRICITY":0.0001597,"INCLINATION":97.9079,"RA_OF_ASC_NODE":90.4179,"ARG_OF_PERICENTER":89.1923,"MEAN_ANOMALY":41.2724,"EPHEMERIS_TYPE":0,"CLASSIFICATION_TYPE":"U","NORAD_CAT_ID":36834,"ELEMENT_SET_NO":999,"REV_AT_EPOCH":84207,"BSTAR":0.00028019,"MEAN_MOTION_DOT":2.336e-5,"MEAN_MOTION_DDOT":0},{"OBJECT_NAME":"COSMO-SKYMED 4","OBJECT_ID":"2010-060A","EPOCH":"2026-03-07T03:58:01.374816","MEAN_MOTION":14.82157814,"ECCENTRICITY":0.0001435,"INCLINATION":97.8858,"RA_OF_ASC_NODE":251.2381,"ARG_OF_PERICENTER":81.7488,"MEAN_ANOMALY":278.3888,"EPHEMERIS_TYPE":0,"CLASSIFICATION_TYPE":"U","NORAD_CAT_ID":37216,"ELEMENT_SET_NO":999,"REV_AT_EPOCH":82945,"BSTAR":4.5761e-5,"MEAN_MOTION_DOT":3.12e-6,"MEAN_MOTION_DDOT":0},{"OBJECT_NAME":"RESOURCESAT-2","OBJECT_ID":"2011-015A","EPOCH":"2026-03-06T11:23:01.301568","MEAN_MOTION":14.21495217,"ECCENTRICITY":0.00063064,"INCLINATION":98.773,"RA_OF_ASC_NODE":133.5822,"ARG_OF_PERICENTER":147.5768,"MEAN_ANOMALY":212.5798,"EPHEMERIS_TYPE":0,"CLASSIFICATION_TYPE":"U","NORAD_CAT_ID":37387,"ELEMENT_SET_NO":999,"REV_AT_EPOCH":77158,"BSTAR":-7.6768733e-5,"MEAN_MOTION_DOT":-2.12e-6,"MEAN_MOTION_DDOT":0},{"OBJECT_NAME":"HAIYANG-2A","OBJECT_ID":"2011-043A","EPOCH":"2026-03-07T04:10:40.041984","MEAN_MOTION":13.78354495,"ECCENTRICITY":0.0001094,"INCLINATION":99.3412,"RA_OF_ASC_NODE":70.8158,"ARG_OF_PERICENTER":282.1981,"MEAN_ANOMALY":77.9047,"EPHEMERIS_TYPE":0,"CLASSIFICATION_TYPE":"U","NORAD_CAT_ID":37781,"ELEMENT_SET_NO":999,"REV_AT_EPOCH":73262,"BSTAR":0.00015786,"MEAN_MOTION_DOT":1.15e-6,"MEAN_MOTION_DDOT":0},{"OBJECT_NAME":"RASAT","OBJECT_ID":"2011-044D","EPOCH":"2026-03-07T05:12:49.741632","MEAN_MOTION":14.6805082,"ECCENTRICITY":0.00212,"INCLINATION":98.0563,"RA_OF_ASC_NODE":159.1955,"ARG_OF_PERICENTER":152.6061,"MEAN_ANOMALY":270.6542,"EPHEMERIS_TYPE":0,"CLASSIFICATION_TYPE":"U","NORAD_CAT_ID":37791,"ELEMENT_SET_NO":999,"REV_AT_EPOCH":77822,"BSTAR":8.006e-5,"MEAN_MOTION_DOT":4.12e-6,"MEAN_MOTION_DDOT":0},{"OBJECT_NAME":"SRMSAT","OBJECT_ID":"2011-058D","EPOCH":"2026-03-06T20:41:54.525696","MEAN_MOTION":14.11546449,"ECCENTRICITY":0.0011841,"INCLINATION":19.9729,"RA_OF_ASC_NODE":318.8168,"ARG_OF_PERICENTER":158.0266,"MEAN_ANOMALY":271.4446,"EPHEMERIS_TYPE":0,"CLASSIFICATION_TYPE":"U","NORAD_CAT_ID":37841,"ELEMENT_SET_NO":999,"REV_AT_EPOCH":74334,"BSTAR":0.00013114,"MEAN_MOTION_DOT":5.07e-6,"MEAN_MOTION_DDOT":0},{"OBJECT_NAME":"PLEIADES 1A","OBJECT_ID":"2011-076F","EPOCH":"2026-03-07T04:30:22.783680","MEAN_MOTION":14.58536534,"ECCENTRICITY":0.0001678,"INCLINATION":98.2048,"RA_OF_ASC_NODE":142.6326,"ARG_OF_PERICENTER":91.5148,"MEAN_ANOMALY":353.2413,"EPHEMERIS_TYPE":0,"CLASSIFICATION_TYPE":"U","NORAD_CAT_ID":38012,"ELEMENT_SET_NO":999,"REV_AT_EPOCH":75712,"BSTAR":5.6038e-5,"MEAN_MOTION_DOT":2.15e-6,"MEAN_MOTION_DDOT":0},{"OBJECT_NAME":"ZIYUAN 1-02C (ZY 1-02C)","OBJECT_ID":"2011-079A","EPOCH":"2026-03-07T05:26:24.759744","MEAN_MOTION":14.38120268,"ECCENTRICITY":0.0005321,"INCLINATION":98.4176,"RA_OF_ASC_NODE":135.6297,"ARG_OF_PERICENTER":248.6584,"MEAN_ANOMALY":204.1856,"EPHEMERIS_TYPE":0,"CLASSIFICATION_TYPE":"U","NORAD_CAT_ID":38038,"ELEMENT_SET_NO":999,"REV_AT_EPOCH":74455,"BSTAR":0.00016276,"MEAN_MOTION_DOT":4.5e-6,"MEAN_MOTION_DDOT":0},{"OBJECT_NAME":"ARIRANG-3 (KOMPSAT-3)","OBJECT_ID":"2012-025B","EPOCH":"2026-03-07T03:16:06.098016","MEAN_MOTION":14.62097985,"ECCENTRICITY":0.0006755,"INCLINATION":98.106,"RA_OF_ASC_NODE":25.4314,"ARG_OF_PERICENTER":77.1853,"MEAN_ANOMALY":283.0103,"EPHEMERIS_TYPE":0,"CLASSIFICATION_TYPE":"U","NORAD_CAT_ID":38338,"ELEMENT_SET_NO":999,"REV_AT_EPOCH":73643,"BSTAR":0.00016019,"MEAN_MOTION_DOT":7.59e-6,"MEAN_MOTION_DDOT":0},{"OBJECT_NAME":"EXACTVIEW-1 (ADS-1B)","OBJECT_ID":"2012-039C","EPOCH":"2026-03-06T19:04:51.915648","MEAN_MOTION":14.24949795,"ECCENTRICITY":0.001191,"INCLINATION":98.9637,"RA_OF_ASC_NODE":180.9494,"ARG_OF_PERICENTER":106.0191,"MEAN_ANOMALY":254.23,"EPHEMERIS_TYPE":0,"CLASSIFICATION_TYPE":"U","NORAD_CAT_ID":38709,"ELEMENT_SET_NO":999,"REV_AT_EPOCH":70812,"BSTAR":0.00011902,"MEAN_MOTION_DOT":2.32e-6,"MEAN_MOTION_DDOT":0},{"OBJECT_NAME":"SPOT 6","OBJECT_ID":"2012-047A","EPOCH":"2026-03-07T04:28:50.289024","MEAN_MOTION":14.5853927,"ECCENTRICITY":0.0001451,"INCLINATION":98.2223,"RA_OF_ASC_NODE":134.6441,"ARG_OF_PERICENTER":95.7503,"MEAN_ANOMALY":264.3862,"EPHEMERIS_TYPE":0,"CLASSIFICATION_TYPE":"U","NORAD_CAT_ID":38755,"ELEMENT_SET_NO":999,"REV_AT_EPOCH":71818,"BSTAR":8.0901e-5,"MEAN_MOTION_DOT":3.3e-6,"MEAN_MOTION_DDOT":0},{"OBJECT_NAME":"PLEIADES 1B","OBJECT_ID":"2012-068A","EPOCH":"2026-03-07T04:56:24.848160","MEAN_MOTION":14.58524226,"ECCENTRICITY":0.0001602,"INCLINATION":98.2019,"RA_OF_ASC_NODE":142.6349,"ARG_OF_PERICENTER":88.285,"MEAN_ANOMALY":271.8533,"EPHEMERIS_TYPE":0,"CLASSIFICATION_TYPE":"U","NORAD_CAT_ID":39019,"ELEMENT_SET_NO":999,"REV_AT_EPOCH":70598,"BSTAR":7.9211e-5,"MEAN_MOTION_DOT":3.22e-6,"MEAN_MOTION_DDOT":0},{"OBJECT_NAME":"GOKTURK 2","OBJECT_ID":"2012-073A","EPOCH":"2026-03-07T03:42:03.642048","MEAN_MOTION":14.75430272,"ECCENTRICITY":0.0001146,"INCLINATION":97.688,"RA_OF_ASC_NODE":268.6578,"ARG_OF_PERICENTER":56.4872,"MEAN_ANOMALY":303.6447,"EPHEMERIS_TYPE":0,"CLASSIFICATION_TYPE":"U","NORAD_CAT_ID":39030,"ELEMENT_SET_NO":999,"REV_AT_EPOCH":70946,"BSTAR":9.1642e-5,"MEAN_MOTION_DOT":5.75e-6,"MEAN_MOTION_DDOT":0}]
