SMOS                    
1 36036U 09059A   26066.09975910  .00000377  00000+0  13406-3 0  9994
2 36036  98.4426 254.9149 0001009  81.9112 278.2191 14.39757922858762
YAOGAN-7                
1 36110U 09069A   26066.12943416  .00000900  00000+0  13185-3 0  9994
2 36110  98.0215 312.5539 0024974  11.5918 348.5862 14.77887058874557
TANDEM-X                
1 36605U 10030A   26065.56893487  .00001861  00000+0  91828-4 0  9990
2 36605  97.4467  74.7380 0001910  96.7733 263.3719 15.19144773871069
CARTOSAT-2B             
1 36795U 10035A   26066.15739638  .00002495  00000+0  34606-3 0  9992
2 36795  97.8749 117.4912 0012300 157.0575 203.1188 14.78767112844774
YAOGAN-10               
1 36834U 10038A   26066.22691044  .00002336  00000+0  28019-3 0  9990
2 36834  97.9079  90.4179 0001597  89.1923  41.2724 14.85000671842074
COSMO-SKYMED 4          
1 37216U 10060A   26066.16529369  .00000312  00000+0  45761-4 0  9999
2 37216  97.8858 251.2381 0001435  81.7488 278.3888 14.82157814829450
RESOURCESAT-2           
1 37387U 11015A   26065.47432062 -.00000212  00000+0 -76769-4 0  9998
2 37387  98.7730 133.5822 0006306 147.5768 212.5798 14.21495217771589
HAIYANG-2A              
1 37781U 11043A   26066.17407456  .00000115  00000+0  15786-3 0  9995
2 37781  99.3412  70.8158 0001094 282.1981  77.9047 13.78354495732623
RASAT                   
1 37791U 11044D   26066.21724238  .00000412  00000+0  80060-4 0  9990
2 37791  98.0563 159.1955 0021200 152.6061 270.6542 14.68050820778227
SRMSAT                  
1 37841U 11058D   26065.86243664  .00000507  00000+0  13114-3 0  9990
2 37841  19.9729 318.8168 0011841 158.0266 271.4446 14.11546449743348
PLEIADES 1A             
1 38012U 11076F   26066.18776370  .00000215  00000+0  56038-4 0  9991
2 38012  98.2048 142.6326 0001678  91.5148 353.2413 14.58536534757128
ZIYUAN 1-02C (ZY 1-02C) 
1 38038U 11079A   26066.22667546  .00000450  00000+0  16276-3 0  9991
2 38038  98.4176 135.6297 0005321 248.6584 204.1856 14.38120268744556
ARIRANG-3 (KOMPSAT-3)   
1 38338U 12025B   26066.13618169  .00000759  00000+0  16019-3 0  9990
2 38338  98.1060  25.4314 0006755  77.1853 283.0103 14.62097985736435
EXACTVIEW-1 (ADS-1B)    
1 38709U 12039C   26065.79504532  .00000232  00000+0  11902-3 0  9998
2 38709  98.9637 180.9494 0011910 106.0191 254.2300 14.24949795708124
SPOT 6                  
1 38755U 12047A   26066.18669316  .00000330  00000+0  80901-4 0  9999
2 38755  98.2223 134.6441 0001451  95.7503 264.3862 14.58539270718189
PLEIADES 1B             
1 39019U 12068A   26066.20584315  .00000322  00000+0  79211-4 0  9997
2 39019  98.2019 142.6349 0001602  88.2850 271.8533 14.58524226705989
GOKTURK 2               
1 39030U 12073A   26066.15420882  .00000575  00000+0  91642-4 0  9990
2 39030  97.6880 268.6578 0001146  56.4872 303.6447 14.75430272709469
